ONEWEB-0142             
1 47288U 20100AG  23318.87084745 -.00000377  00000+0 -10842-2 0  9997
2 47288  87.9028 178.6442 0001649  86.8024 273.3293 13.12443152140678
ONEWEB-0143             
1 47289U 20100AH  23318.90155799  .00000211  00000+0  55008-3 0  9999
2 47289  87.9029 178.6572 0001543  77.0147 283.1153 13.12445192140653
ONEWEB-0144             
1 47290U 20100AJ  23318.87400861 -.00000304  00000+0 -87930-3 0  9994
2 47290  87.9027 178.6465 0001423  96.4218 263.7073 13.12444591140573
ONEWEB-0145             
1 47291U 20100AK  23318.84436986  .00000355  00000+0  95240-3 0  9996
2 47291  87.9029 178.6754 0001493  83.8677 276.2621 13.12443094140769
ONEWEB-0146             
1 47292U 20100AL  23318.91637414  .00000471  00000+0  12744-2 0  9990
2 47292  87.8944 178.6818 0001709  62.6751 297.4551 13.12442046140688
ONEWEB-0147             
1 47293U 20100AM  23318.88459334 -.00000464  00000+0 -13251-2 0  9998
2 47293  87.9025 178.6519 0001095  86.7003 273.4251 13.12443941140577
ONEWEB-0115             
1 48042U 21025A   23318.81144473  .00000030  00000+0  48558-4 0  9993
2 48042  87.8985 148.3752 0001481  77.5370 282.5924 13.13472166129499
ONEWEB-0152             
1 48043U 21025B   23318.82415198  .00000346  00000+0  91312-3 0  9995
2 48043  87.8988 148.3614 0001376  85.4359 274.6928 13.13472153129456
